OBJECT_NAME,OBJECT_ID,EPOCH,MEAN_MOTION,ECCENTRICITY,INCLINATION,RA_OF_ASC_NODE,ARG_OF_PERICENTER,MEAN_ANOMALY,EPHEMERIS_TYPE,CLASSIFICATION_TYPE,NORAD_CAT_ID,ELEMENT_SET_NO,REV_AT_EPOCH,BSTAR,MEAN_MOTION_DOT,MEAN_MOTION_DDOT
STARS (KUKAI),2009-002G,2026-07-16T20:27:36.423360,14.95931540,.0009828,98.1553,146.3775,75.3822,284.8487,0,U,33498,999,94291,.16446E-3,.1779E-4,0
KKS-1 (KISEKI),2009-002H,2026-07-17T01:49:20.875584,14.83191704,.0007593,98.1173,120.9918,182.5438,177.5738,0,U,33499,999,94062,.77746E-4,.579E-5,0
UK-DMC 2,2009-041C,2026-07-17T04:31:12.187200,14.76093464,.00016,97.8876,332.4273,100.7280,259.4110,0,U,35683,999,91099,-.12228E-4,-.134E-5,0
OCEANSAT-2,2009-051A,2026-07-17T05:22:08.868864,13.99655931,.0017472,98.2321,182.0763,147.6578,212.5663,0,U,35931,999,88353,-.25716E-6,-.38E-6,0
SWISSCUBE,2009-051B,2026-07-16T17:23:11.734368,14.62532363,.0007905,98.4005,106.1245,114.9711,245.2311,0,U,35932,999,89347,.99539E-4,.456E-5,0
BEESAT-1,2009-051C,2026-07-16T16:20:27.869568,14.61763234,.0006186,98.3932,105.6536,125.9975,234.1800,0,U,35933,999,89349,.86615E-4,.383E-5,0
ITUPSAT1,2009-051E,2026-07-17T04:15:10.956096,14.60480346,.0008205,98.4015,105.3171,137.6090,222.5745,0,U,35935,999,89311,.79459E-4,.337E-5,0
DMSP 5D-3 F18 (USA 210),2009-057A,2026-07-17T02:59:16.584864,14.14912506,.0011343,98.9057,178.8316,160.1256,200.0361,0,U,35951,999,86382,.11167E-3,.171E-5,0
PROBA-2,2009-059B,2026-07-16T22:50:02.783904,14.54874063,.0013135,98.2461,20.8931,183.2522,176.8592,0,U,36037,999,88585,.24197E-4,.59E-6,0
YAOGAN-7,2009-069A,2026-07-17T03:31:43.612320,14.78036478,.0023391,98.0030,83.8237,304.7704,55.1305,0,U,36110,999,89405,.33467E-4,.189E-5,0
XIWANG-1 (HOPE-1),2009-072B,2026-07-17T04:30:02.810592,13.16438828,.0007575,100.4041,151.5430,160.4065,199.7340,0,U,36122,999,79695,-.78825E-3,-.345E-5,0
COSMOS 2463,2010-017A,2026-07-17T00:20:36.305376,13.71667275,.0037215,82.9580,227.7905,49.0025,321.2859,0,U,36519,999,81202,.14323E-4,.28E-6,0
CARTOSAT-2B,2010-035A,2026-07-17T04:22:52.327776,14.78653225,.0012736,97.9935,248.5375,94.1268,266.1399,0,U,36795,999,86428,.84324E-4,.566E-5,0
TISAT 1,2010-035E,2026-07-16T19:55:58.897056,15.32770774,.0004608,98.0717,147.0371,116.8908,243.2804,0,U,36799,999,87224,.36749E-3,.1155E-3,0
YAOGAN-10,2010-038A,2026-07-17T04:41:35.259072,14.85432930,.0001672,97.8966,221.3608,81.8065,352.0501,0,U,36834,999,86166,.72102E-4,.567E-5,0
SHIJIAN-6 04B (SJ-6 04B),2010-051B,2026-07-17T04:30:36.425376,14.99382161,.0007935,97.8729,203.9198,205.6864,154.3965,0,U,37180,999,86017,-.16712E-4,-.266E-5,0
FENGYUN 3B,2010-059A,2026-07-17T03:35:38.534784,14.14845779,.0023171,98.9601,244.2889,101.2966,333.9276,0,U,37214,999,81166,-.12957E-3,-.296E-5,0
COSMO-SKYMED 4,2010-060A,2026-07-17T03:33:40.983264,14.82150987,.0001522,97.8889,21.3143,86.0443,274.0944,0,U,37216,999,84900,.67503E-4,.485E-5,0
O/OREOS (USA 219),2010-062C,2026-07-16T20:41:59.707968,14.93855170,.0014076,71.9698,13.1111,1.8269,358.2950,0,U,37224,999,12107,.99231E-4,.992E-5,0
RESOURCESAT-2,2011-015A,2026-07-17T03:25:10.997760,14.21599827,.0011665,98.7631,265.3751,165.6644,194.4866,0,U,37387,999,79043,.35903E-4,.35E-6,0
YOUTHSAT,2011-015B,2026-07-16T21:54:59.634144,14.25640993,.0013203,98.3703,170.6303,253.7074,160.7540,0,U,37388,999,79187,.45348E-4,.66E-6,0
APRIZESAT 6,2011-044F,2026-07-16T18:04:06.244320,14.76958132,.0042921,98.2335,108.8536,353.2900,67.9147,0,U,37793,999,80151,.56622E-4,.348E-5,0
JUGNU,2011-058B,2026-07-17T03:59:27.847392,14.13783712,.0018611,19.9596,126.2869,48.1963,89.0801,0,U,37839,999,76327,.35858E-4,.335E-5,0
SRMSAT,2011-058D,2026-07-17T04:35:34.437120,14.11581345,.0011708,19.9707,237.8634,173.0864,239.6665,0,U,37841,999,76206,.34785E-4,.329E-5,0
SUOMI NPP,2011-061A,2026-07-17T03:44:46.195008,14.19522782,.0000836,98.7955,138.8285,203.4276,156.6862,0,U,37849,999,76269,.31537E-4,.22E-6,0
YAOGAN-12,2011-066B,2026-07-17T05:13:24.928896,15.26905577,.0011004,97.1120,235.3769,116.0938,244.1435,0,U,37875,999,81662,.90653E-4,.233E-4,0
